start=new Date('2022-05-11T00:00:00.000Z').valueOf();
sats=[{"INCLINATION":"53.0583","LAUNCH_DATE":"2020-10-06","OBJECT_NAME":"STARLINK-1728","RA_OF_ASC_NODE":"316.1218","EPHEMERIS_TYPE":"0","REV_AT_EPOCH":"8895","ECCENTRICITY":"0.00013630","BSTAR":"-0.00001520600000","ARG_OF_PERICENTER":"73.7879","REF_FRAME":"TEME","GP_ID":"203226201","FILE":"3439673","MEAN_MOTION":"15.06396824","EPOCH":"2022-05-10T21:05:46.095072","MEAN_ELEMENT_THEORY":"SGP4","OBJECT_TYPE":"PAYLOAD","OBJECT_ID":"2020-070BC","CLASSIFICATION_TYPE":"U","MEAN_MOTION_DOT":"-0.00000508","CENTER_NAME":"EARTH","DECAY_DATE":null,"PERIOD":"95.592","NORAD_CAT_ID":"46582","SEMIMAJOR_AXIS":"6925.358","TLE_LINE1":"1 46582U 20070BC  22130.87900573 -.00000508  00000-0 -15206-4 0  9994","MEAN_ANOMALY":"286.3260","APOAPSIS":"548.167","ELEMENT_SET_NO":"999","PERIAPSIS":"546.279","MEAN_MOTION_DDOT":"0.0000000000000","RCS_SIZE":"LARGE","TIME_SYSTEM":"UTC","TLE_LINE2":"2 46582  53.0583 316.1218 0001363  73.7879 286.3260 15.06396824 88958","SITE":"AFETR","COUNTRY_CODE":"US"},{"GP_ID":"203226450","REF_FRAME":"TEME","EPOCH":"2022-05-10T20:41:53.505312","MEAN_MOTION":"15.06389615","FILE":"3439673","ARG_OF_PERICENTER":"74.7914","CENTER_NAME":"EARTH","CLASSIFICATION_TYPE":"U","OBJECT_TYPE":"PAYLOAD","OBJECT_ID":"2020-070BD","MEAN_ELEMENT_THEORY":"SGP4","MEAN_MOTION_DOT":"0.00000358","LAUNCH_DATE":"2020-10-06","RA_OF_ASC_NODE":"336.1939","OBJECT_NAME":"STARLINK-1729","REV_AT_EPOCH":"8866","EPHEMERIS_TYPE":"0","INCLINATION":"53.0570","BSTAR":"0.00004294900000","ECCENTRICITY":"0.00015390","RCS_SIZE":"LARGE","PERIAPSIS":"546.180","MEAN_MOTION_DDOT":"0.0000000000000","COUNTRY_CODE":"US","SITE":"AFETR","TLE_LINE2":"2 46583  53.0570 336.1939 0001539  74.7914 285.3246 15.06389615 88664","TIME_SYSTEM":"UTC","DECAY_DATE":null,"TLE_LINE1":"1 46583U 20070BD  22130.86242483  .00000358  00000-0  42949-4 0  9998","SEMIMAJOR_AXIS":"6925.380","NORAD_CAT_ID":"46583","PERIOD":"95.593","APOAPSIS":"548.311","ELEMENT_SET_NO":"999","MEAN_ANOMALY":"285.3246"},{"TIME_SYSTEM":"UTC","TLE_LINE2":"2 46584  53.0555 316.4126 0001453  71.6256 288.4891 15.06393884 88941","SITE":"AFETR","COUNTRY_CODE":"US","MEAN_MOTION_DDOT":"0.0000000000000","PERIAPSIS":"546.226","RCS_SIZE":"LARGE","MEAN_ANOMALY":"288.4891","APOAPSIS":"548.239","ELEMENT_SET_NO":"999","DECAY_DATE":null,"NORAD_CAT_ID":"46584","PERIOD":"95.593","TLE_LINE1":"1 46584U 20070BE  22130.81634994 -.00001231  00000-0 -63777-4 0  9991","SEMIMAJOR_AXIS":"6925.367","OBJECT_TYPE":"PAYLOAD","OBJECT_ID":"2020-070BE","MEAN_ELEMENT_THEORY":"SGP4","CLASSIFICATION_TYPE":"U","MEAN_MOTION_DOT":"-0.00001231","CENTER_NAME":"EARTH","ARG_OF_PERICENTER":"71.6256","REF_FRAME":"TEME","GP_ID":"203227202","FILE":"3439673","MEAN_MOTION":"15.06393884","EPOCH":"2022-05-10T19:35:32.634816","ECCENTRICITY":"0.00014530","BSTAR":"-0.00006377700000","INCLINATION":"53.0555","LAUNCH_DATE":"2020-10-06","OBJECT_NAME":"STARLINK-1732","RA_OF_ASC_NODE":"316.4126","EPHEMERIS_TYPE":"0","REV_AT_EPOCH":"8894"},{"DECAY_DATE":null,"SEMIMAJOR_AXIS":"6923.704","TLE_LINE1":"1 46585U 20070BF  22130.90029468  .00051608  00000-0  34086-2 0  9996","PERIOD":"95.558","NORAD_CAT_ID":"46585","MEAN_ANOMALY":"287.9372","APOAPSIS":"546.580","ELEMENT_SET_NO":"999","MEAN_MOTION_DDOT":"0.0000000000000","PERIAPSIS":"544.559","RCS_SIZE":"LARGE","TIME_SYSTEM":"UTC","TLE_LINE2":"2 46585  53.0554 316.0209 0001460  72.1776 287.9372 15.06936583 88958","COUNTRY_CODE":"US","SITE":"AFETR","INCLINATION":"53.0554","LAUNCH_DATE":"2020-10-06","OBJECT_NAME":"STARLINK-1736","RA_OF_ASC_NODE":"316.0209","REV_AT_EPOCH":"8895","EPHEMERIS_TYPE":"0","ECCENTRICITY":"0.00014600","BSTAR":"0.00340860000000","ARG_OF_PERICENTER":"72.1776","GP_ID":"203227951","REF_FRAME":"TEME","MEAN_MOTION":"15.06936583","EPOCH":"2022-05-10T21:36:25.460352","FILE":"3439673","CLASSIFICATION_TYPE":"U","OBJECT_TYPE":"PAYLOAD","OBJECT_ID":"2020-070BF","MEAN_ELEMENT_THEORY":"SGP4","MEAN_MOTION_DOT":"0.00051608","CENTER_NAME":"EARTH"},{"EPOCH":"2022-05-10T21:21:41.811264","MEAN_MOTION":"15.06401569","FILE":"3439673","GP_ID":"203226700","REF_FRAME":"TEME","ARG_OF_PERICENTER":"105.2567","CENTER_NAME":"EARTH","MEAN_MOTION_DOT":"0.00002410","CLASSIFICATION_TYPE":"U","OBJECT_TYPE":"PAYLOAD","OBJECT_ID":"2020-070BG","MEAN_ELEMENT_THEORY":"SGP4","REV_AT_EPOCH":"8895","EPHEMERIS_TYPE":"0","OBJECT_NAME":"STARLINK-1737","LAUNCH_DATE":"2020-10-06","RA_OF_ASC_NODE":"316.0846","INCLINATION":"53.0537","BSTAR":"0.00018059000000","ECCENTRICITY":"0.00014330","RCS_SIZE":"LARGE","MEAN_MOTION_DDOT":"0.0000000000000","PERIAPSIS":"546.216","COUNTRY_CODE":"US","SITE":"AFETR","TIME_SYSTEM":"UTC","TLE_LINE2":"2 46586  53.0537 316.0846 0001433 105.2567 254.8580 15.06401569 88958","SEMIMAJOR_AXIS":"6925.344","TLE_LINE1":"1 46586U 20070BG  22130.89006726  .00002410  00000-0  18059-3 0  9997","NORAD_CAT_ID":"46586","PERIOD":"95.592","DECAY_DATE":null,"ELEMENT_SET_NO":"999","APOAPSIS":"548.201","MEAN_ANOMALY":"254.8580"},{"ARG_OF_PERICENTER":"59.5299","MEAN_MOTION":"15.06395644","EPOCH":"2022-05-10T20:55:09.617376","FILE":"3439673","GP_ID":"203226950","REF_FRAME":"TEME","MEAN_MOTION_DOT":"-0.00001698","CLASSIFICATION_TYPE":"U","OBJECT_TYPE":"PAYLOAD","OBJECT_ID":"2020-070BJ","MEAN_ELEMENT_THEORY":"SGP4","CENTER_NAME":"EARTH","INCLINATION":"53.0551","REV_AT_EPOCH":"8895","EPHEMERIS_TYPE":"0","LAUNCH_DATE":"2020-10-06","RA_OF_ASC_NODE":"316.1637","OBJECT_NAME":"STARLINK-1746","ECCENTRICITY":"0.00016150","BSTAR":"-0.00009511800000","PERIAPSIS":"546.108","MEAN_MOTION_DDOT":"0.0000000000000","RCS_SIZE":"LARGE","TIME_SYSTEM":"UTC","TLE_LINE2":"2 46588  53.0551 316.1637 0001615  59.5299 300.5850 15.06395644 88955","COUNTRY_CODE":"US","SITE":"AFETR","TLE_LINE1":"1 46588U 20070BJ  22130.87163909 -.00001698  00000-0 -95118-4 0  9995","SEMIMAJOR_AXIS":"6925.362","PERIOD":"95.592","NORAD_CAT_ID":"46588","DECAY_DATE":null,"MEAN_ANOMALY":"300.5850","APOAPSIS":"548.345","ELEMENT_SET_NO":"999"},{"TLE_LINE2":"2 46589  53.0556 316.1945 0001340  81.1867 278.9273 15.06396934 88949","TIME_SYSTEM":"UTC","SITE":"AFETR","COUNTRY_CODE":"US","MEAN_MOTION_DDOT":"0.0000000000000","PERIAPSIS":"546.295","RCS_SIZE":"LARGE","MEAN_ANOMALY":"278.9273","APOAPSIS":"548.151","ELEMENT_SET_NO":"999","PERIOD":"95.592","NORAD_CAT_ID":"46589","TLE_LINE1":"1 46589U 20070BK  22130.86426116 -.00000044  00000-0  15952-4 0  9998","SEMIMAJOR_AXIS":"6925.358","DECAY_DATE":null,"MEAN_MOTION_DOT":"-0.00000044","MEAN_ELEMENT_THEORY":"SGP4","OBJECT_TYPE":"PAYLOAD","OBJECT_ID":"2020-070BK","CLASSIFICATION_TYPE":"U","CENTER_NAME":"EARTH","ARG_OF_PERICENTER":"81.1867","FILE":"3439673","MEAN_MOTION":"15.06396934","EPOCH":"2022-05-10T20:44:32.164224","REF_FRAME":"TEME","GP_ID":"203227702","ECCENTRICITY":"0.00013400","BSTAR":"0.00001595200000","INCLINATION":"53.0556","EPHEMERIS_TYPE":"0","REV_AT_EPOCH":"8894","OBJECT_NAME":"STARLINK-1749","LAUNCH_DATE":"2020-10-06","RA_OF_ASC_NODE":"316.1945"},{"LAUNCH_DATE":"2020-10-06","RA_OF_ASC_NODE":"316.5403","OBJECT_NAME":"STARLINK-1755","EPHEMERIS_TYPE":"0","REV_AT_EPOCH":"8799","INCLINATION":"53.0555","BSTAR":"0.00002070300000","ECCENTRICITY":"0.00014450","REF_FRAME":"TEME","GP_ID":"203227452","FILE":"3439673","MEAN_MOTION":"15.06391334","EPOCH":"2022-05-10T18:53:04.839648","ARG_OF_PERICENTER":"70.9543","CENTER_NAME":"EARTH","OBJECT_TYPE":"PAYLOAD","MEAN_ELEMENT_THEORY":"SGP4","OBJECT_ID":"2020-070BM","CLASSIFICATION_TYPE":"U","MEAN_MOTION_DOT":"0.00000027","DECAY_DATE":null,"NORAD_CAT_ID":"46591","PERIOD":"95.593","SEMIMAJOR_AXIS":"6925.375","TLE_LINE1":"1 46591U 20070BM  22130.78686157  .00000027  00000-0  20703-4 0  9995","ELEMENT_SET_NO":"999","APOAPSIS":"548.241","MEAN_ANOMALY":"289.1602","RCS_SIZE":"LARGE","MEAN_MOTION_DDOT":"0.0000000000000","PERIAPSIS":"546.239","SITE":"AFETR","COUNTRY_CODE":"US","TIME_SYSTEM":"UTC","TLE_LINE2":"2 46591  53.0555 316.5403 0001445  70.9543 289.1602 15.06391334 87990"},{"MEAN_MOTION_DOT":"0.00000995","MEAN_ELEMENT_THEORY":"SGP4","OBJECT_TYPE":"PAYLOAD","OBJECT_ID":"2020-073B","CLASSIFICATION_TYPE":"U","CENTER_NAME":"EARTH","ARG_OF_PERICENTER":"53.9383","FILE":"3439673","EPOCH":"2022-05-10T22:12:04.412448","MEAN_MOTION":"15.06398329","REF_FRAME":"TEME","GP_ID":"203226958","ECCENTRICITY":"0.00017590","BSTAR":"0.00008570300000","INCLINATION":"53.0561","EPHEMERIS_TYPE":"0","REV_AT_EPOCH":"8623","OBJECT_NAME":"STARLINK-1715","LAUNCH_DATE":"2020-10-18","RA_OF_ASC_NODE":"45.9211","TIME_SYSTEM":"UTC","TLE_LINE2":"2 46671  53.0561  45.9211 0001759  53.9383 306.1769 15.06398329 86238","SITE":"AFETR","COUNTRY_CODE":"US","MEAN_MOTION_DDOT":"0.0000000000000","PERIAPSIS":"546.001","RCS_SIZE":"LARGE","MEAN_ANOMALY":"306.1769","ELEMENT_SET_NO":"999","APOAPSIS":"548.437","PERIOD":"95.592","NORAD_CAT_ID":"46671","TLE_LINE1":"1 46671U 20073B   22130.92505107  .00000995  00000-0  85703-4 0  9993","SEMIMAJOR_AXIS":"6925.354","DECAY_DATE":null},{"FILE":"3439673","MEAN_MOTION":"15.06403323","EPOCH":"2022-05-10T21:34:17.556384","REF_FRAME":"TEME","GP_ID":"203227710","ARG_OF_PERICENTER":"65.9181","CENTER_NAME":"EARTH","MEAN_MOTION_DOT":"0.00000207","OBJECT_TYPE":"PAYLOAD","OBJECT_ID":"2020-073C","MEAN_ELEMENT_THEORY":"SGP4","CLASSIFICATION_TYPE":"U","EPHEMERIS_TYPE":"0","REV_AT_EPOCH":"8630","LAUNCH_DATE":"2020-10-18","RA_OF_ASC_NODE":"41.0263","OBJECT_NAME":"STARLINK-1716","INCLINATION":"53.0589","BSTAR":"0.00003278200000","ECCENTRICITY":"0.00018200","RCS_SIZE":"LARGE","PERIAPSIS":"545.943","MEAN_MOTION_DDOT":"0.0000000000000","SITE":"AFETR","COUNTRY_CODE":"US","TLE_LINE2":"2 46672  53.0589  41.0263 0001820  65.9181 294.1998 15.06403323 86300","TIME_SYSTEM":"UTC","PERIOD":"95.592","NORAD_CAT_ID":"46672","TLE_LINE1":"1 46672U 20073C   22130.89881431  .00000207  00000-0  32782-4 0  9992","SEMIMAJOR_AXIS":"6925.338","DECAY_DATE":null,"APOAPSIS":"548.464","ELEMENT_SET_NO":"999","MEAN_ANOMALY":"294.1998"}];
